[
    {
        "Altitude(m)": 607886.6751345043,
        "Argument of Periapsis(deg)": 0.0,
        "Eccentricity": 0.0,
        "Inclination(deg)": 60.0,
        "Latitude(deg)": 40.99839946534159,
        "Longitude(deg)": -40.02711662256515,
        "Mean Anomaly(deg)": 49.09089999999999,
        "RAAN(deg)": 30.0,
        "Satellite Name": "Test1 135",
        "Satellite Number": 135,
        "Semi-Major Axis(m)": 6980739.136638005,
        "Time(s)": 0
    },
    {
        "Altitude(m)": 607987.5895041254,
        "Argument of Periapsis(deg)": 0.00010418945913296404,
        "Eccentricity": 0.0,
        "Inclination(deg)": 60.0,
        "Latitude(deg)": 41.46349052795145,
        "Longitude(deg)": -39.52289067620149,
        "Mean Anomaly(deg)": 49.71100614546182,
        "RAAN(deg)": 29.99957995086026,
        "Satellite Name": "Test1 135",
        "Satellite Number": 135,
        "Semi-Major Axis(m)": 6980739.136638005,
        "Time(s)": 10
    }
]